[{"OBJECT_NAME":"ONEWEB-0375","OBJECT_ID":"2021-090Y","EPOCH":"2025-11-02T10:27:17.068608","MEAN_MOTION":13.20771236,"ECCENTRICITY":0.0001333,"INCLINATION":87.9185,"RA_OF_ASC_NODE":319.6599,"ARG_OF_PERICENTER":82.0145,"MEAN_ANOMALY":278.114,"EPHEMERIS_TYPE":0,"CLASSIFICATION_TYPE":"U","NORAD_CAT_ID":49301,"ELEMENT_SET_NO":999,"REV_AT_EPOCH":20059,"BSTAR":1.582e-5,"MEAN_MOTION_DOT":1.9e-7,"MEAN_MOTION_DDOT":0},{"OBJECT_NAME":"ONEWEB-0376","OBJECT_ID":"2021-090Z","EPOCH":"2025-11-02T11:54:20.321856","MEAN_MOTION":13.19724187,"ECCENTRICITY":0.0002095,"INCLINATION":87.9244,"RA_OF_ASC_NODE":350.0551,"ARG_OF_PERICENTER":102.3156,"MEAN_ANOMALY":257.8211,"EPHEMERIS_TYPE":0,"CLASSIFICATION_TYPE":"U","NORAD_CAT_ID":49302,"ELEMENT_SET_NO":999,"REV_AT_EPOCH":19655,"BSTAR":-7.9137e-6,"MEAN_MOTION_DOT":1.0e-7,"MEAN_MOTION_DDOT":0},{"OBJECT_NAME":"ONEWEB-0377","OBJECT_ID":"2021-090AA","EPOCH":"2025-11-02T11:56:07.342944","MEAN_MOTION":13.2077129,"ECCENTRICITY":0.0001918,"INCLINATION":87.9195,"RA_OF_ASC_NODE":319.6457,"ARG_OF_PERICENTER":86.0584,"MEAN_ANOMALY":274.0768,"EPHEMERIS_TYPE":0,"CLASSIFICATION_TYPE":"U","NORAD_CAT_ID":49303,"ELEMENT_SET_NO":999,"REV_AT_EPOCH":20059,"BSTAR":-5.164e-5,"MEAN_MOTION_DOT":-8.0e-8,"MEAN_MOTION_DDOT":0},{"OBJECT_NAME":"ONEWEB-0378","OBJECT_ID":"2021-090AB","EPOCH":"2025-11-02T10:38:50.546112","MEAN_MOTION":13.20771881,"ECCENTRICITY":0.0001745,"INCLINATION":87.9192,"RA_OF_ASC_NODE":319.6714,"ARG_OF_PERICENTER":91.4185,"MEAN_ANOMALY":268.7148,"EPHEMERIS_TYPE":0,"CLASSIFICATION_TYPE":"U","NORAD_CAT_ID":49304,"ELEMENT_SET_NO":999,"REV_AT_EPOCH":19985,"BSTAR":0.00013148,"MEAN_MOTION_DOT":6.6e-7,"MEAN_MOTION_DDOT":0},{"OBJECT_NAME":"ONEWEB-0379","OBJECT_ID":"2021-090AC","EPOCH":"2025-11-02T08:37:05.407104","MEAN_MOTION":13.14502287,"ECCENTRICITY":0.0001794,"INCLINATION":87.9008,"RA_OF_ASC_NODE":334.8952,"ARG_OF_PERICENTER":98.2342,"MEAN_ANOMALY":261.8992,"EPHEMERIS_TYPE":0,"CLASSIFICATION_TYPE":"U","NORAD_CAT_ID":49305,"ELEMENT_SET_NO":999,"REV_AT_EPOCH":19776,"BSTAR":-0.00012149,"MEAN_MOTION_DOT":-3.2e-7,"MEAN_MOTION_DDOT":0},{"OBJECT_NAME":"ONEWEB-0380","OBJECT_ID":"2021-090AD","EPOCH":"2025-11-02T11:49:48.662112","MEAN_MOTION":13.19724331,"ECCENTRICITY":0.0002176,"INCLINATION":87.9241,"RA_OF_ASC_NODE":350.0797,"ARG_OF_PERICENTER":100.9182,"MEAN_ANOMALY":259.2195,"EPHEMERIS_TYPE":0,"CLASSIFICATION_TYPE":"U","NORAD_CAT_ID":49306,"ELEMENT_SET_NO":999,"REV_AT_EPOCH":19652,"BSTAR":-0.00072663,"MEAN_MOTION_DOT":-2.78e-6,"MEAN_MOTION_DDOT":0},{"OBJECT_NAME":"ONEWEB-0381","OBJECT_ID":"2021-090AE","EPOCH":"2025-11-02T11:51:22.781088","MEAN_MOTION":13.20771868,"ECCENTRICITY":0.0001635,"INCLINATION":87.9184,"RA_OF_ASC_NODE":319.6512,"ARG_OF_PERICENTER":86.2754,"MEAN_ANOMALY":273.8566,"EPHEMERIS_TYPE":0,"CLASSIFICATION_TYPE":"U","NORAD_CAT_ID":49307,"ELEMENT_SET_NO":999,"REV_AT_EPOCH":19990,"BSTAR":2.4656e-5,"MEAN_MOTION_DOT":2.3e-7,"MEAN_MOTION_DDOT":0},{"OBJECT_NAME":"ONEWEB-0382","OBJECT_ID":"2021-090AF","EPOCH":"2025-11-02T11:33:11.849760","MEAN_MOTION":13.20771249,"ECCENTRICITY":0.0001535,"INCLINATION":87.9192,"RA_OF_ASC_NODE":319.6469,"ARG_OF_PERICENTER":93.6872,"MEAN_ANOMALY":266.4437,"EPHEMERIS_TYPE":0,"CLASSIFICATION_TYPE":"U","NORAD_CAT_ID":49308,"ELEMENT_SET_NO":999,"REV_AT_EPOCH":19989,"BSTAR":6.2951e-5,"MEAN_MOTION_DOT":3.9e-7,"MEAN_MOTION_DDOT":0},{"OBJECT_NAME":"ONEWEB-0383","OBJECT_ID":"2021-090AG","EPOCH":"2025-11-02T08:27:57.639744","MEAN_MOTION":13.14504643,"ECCENTRICITY":0.0001717,"INCLINATION":87.9012,"RA_OF_ASC_NODE":334.8797,"ARG_OF_PERICENTER":99.0959,"MEAN_ANOMALY":261.0365,"EPHEMERIS_TYPE":0,"CLASSIFICATION_TYPE":"U","NORAD_CAT_ID":49309,"ELEMENT_SET_NO":999,"REV_AT_EPOCH":19779,"BSTAR":-0.00023216,"MEAN_MOTION_DOT":-7.3e-7,"MEAN_MOTION_DDOT":0},{"OBJECT_NAME":"ONEWEB-0384","OBJECT_ID":"2021-090AH","EPOCH":"2025-11-02T11:24:50.583744","MEAN_MOTION":13.20796304,"ECCENTRICITY":0.0001337,"INCLINATION":87.9207,"RA_OF_ASC_NODE":319.6804,"ARG_OF_PERICENTER":100.7649,"MEAN_ANOMALY":259.3635,"EPHEMERIS_TYPE":0,"CLASSIFICATION_TYPE":"U","NORAD_CAT_ID":49310,"ELEMENT_SET_NO":999,"REV_AT_EPOCH":19990,"BSTAR":1.2706e-7,"MEAN_MOTION_DOT":1.3e-7,"MEAN_MOTION_DDOT":0},{"OBJECT_NAME":"ONEWEB-0385","OBJECT_ID":"2021-090AJ","EPOCH":"2025-11-02T11:21:49.726080","MEAN_MOTION":13.2077232,"ECCENTRICITY":0.0001686,"INCLINATION":87.9187,"RA_OF_ASC_NODE":319.6571,"ARG_OF_PERICENTER":92.7835,"MEAN_ANOMALY":267.3492,"EPHEMERIS_TYPE":0,"CLASSIFICATION_TYPE":"U","NORAD_CAT_ID":49311,"ELEMENT_SET_NO":999,"REV_AT_EPOCH":19987,"BSTAR":9.2794e-5,"MEAN_MOTION_DOT":5.1e-7,"MEAN_MOTION_DDOT":0},{"OBJECT_NAME":"ONEWEB-0386","OBJECT_ID":"2021-090AK","EPOCH":"2025-11-02T11:46:49.655136","MEAN_MOTION":13.20771655,"ECCENTRICITY":0.0001592,"INCLINATION":87.9194,"RA_OF_ASC_NODE":319.6341,"ARG_OF_PERICENTER":95.1942,"MEAN_ANOMALY":264.9373,"EPHEMERIS_TYPE":0,"CLASSIFICATION_TYPE":"U","NORAD_CAT_ID":49312,"ELEMENT_SET_NO":999,"REV_AT_EPOCH":19989,"BSTAR":-0.00010674,"MEAN_MOTION_DOT":-3.0e-7,"MEAN_MOTION_DDOT":0},{"OBJECT_NAME":"ONEWEB-0387","OBJECT_ID":"2021-090AL","EPOCH":"2025-11-02T11:24:06.162912","MEAN_MOTION":13.20770604,"ECCENTRICITY":0.0001689,"INCLINATION":87.9182,"RA_OF_ASC_NODE":319.6863,"ARG_OF_PERICENTER":83.2755,"MEAN_ANOMALY":276.857,"EPHEMERIS_TYPE":0,"CLASSIFICATION_TYPE":"U","NORAD_CAT_ID":49313,"ELEMENT_SET_NO":999,"REV_AT_EPOCH":19989,"BSTAR":7.9563e-5,"MEAN_MOTION_DOT":4.5e-7,"MEAN_MOTION_DDOT":0},{"OBJECT_NAME":"ONEWEB-0388","OBJECT_ID":"2021-090AM","EPOCH":"2025-11-02T11:42:58.962816","MEAN_MOTION":13.19726634,"ECCENTRICITY":0.0001728,"INCLINATION":87.9223,"RA_OF_ASC_NODE":350.0852,"ARG_OF_PERICENTER":98.3674,"MEAN_ANOMALY":261.7655,"EPHEMERIS_TYPE":0,"CLASSIFICATION_TYPE":"U","NORAD_CAT_ID":49314,"ELEMENT_SET_NO":999,"REV_AT_EPOCH":19651,"BSTAR":0.00021366,"MEAN_MOTION_DOT":9.8e-7,"MEAN_MOTION_DDOT":0},{"OBJECT_NAME":"ONEWEB-0389","OBJECT_ID":"2021-132A","EPOCH":"2025-11-02T05:24:44.024256","MEAN_MOTION":13.1765138,"ECCENTRICITY":0.00014203,"INCLINATION":87.9141,"RA_OF_ASC_NODE":51.0022,"ARG_OF_PERICENTER":99.5853,"MEAN_ANOMALY":260.5439,"EPHEMERIS_TYPE":0,"CLASSIFICATION_TYPE":"U","NORAD_CAT_ID":50469,"ELEMENT_SET_NO":999,"REV_AT_EPOCH":18819,"BSTAR":0.00039643762,"MEAN_MOTION_DOT":1.67e-6,"MEAN_MOTION_DDOT":0},{"OBJECT_NAME":"ONEWEB-0390","OBJECT_ID":"2021-132B","EPOCH":"2025-11-02T09:05:51.519264","MEAN_MOTION":13.1765004,"ECCENTRICITY":0.0001927,"INCLINATION":87.9127,"RA_OF_ASC_NODE":50.9759,"ARG_OF_PERICENTER":94.0003,"MEAN_ANOMALY":266.1349,"EPHEMERIS_TYPE":0,"CLASSIFICATION_TYPE":"U","NORAD_CAT_ID":50470,"ELEMENT_SET_NO":999,"REV_AT_EPOCH":18821,"BSTAR":0.00018642,"MEAN_MOTION_DOT":8.5e-7,"MEAN_MOTION_DDOT":0},{"OBJECT_NAME":"ONEWEB-0391","OBJECT_ID":"2021-132C","EPOCH":"2025-11-02T05:29:35.232864","MEAN_MOTION":13.17651478,"ECCENTRICITY":0.00013328,"INCLINATION":87.9128,"RA_OF_ASC_NODE":51.0161,"ARG_OF_PERICENTER":73.4377,"MEAN_ANOMALY":286.6901,"EPHEMERIS_TYPE":0,"CLASSIFICATION_TYPE":"U","NORAD_CAT_ID":50471,"ELEMENT_SET_NO":999,"REV_AT_EPOCH":18819,"BSTAR":0.0002396926,"MEAN_MOTION_DOT":1.06e-6,"MEAN_MOTION_DDOT":0}]
