ONEWEB-0375             
1 49301U 21090Y   25306.43561422  .00000019  00000+0  15820-4 0  9991
2 49301  87.9185 319.6599 0001333  82.0145 278.1140 13.20771236200590
ONEWEB-0376             
1 49302U 21090Z   25306.49606854  .00000010  00000+0 -79137-5 0  9991
2 49302  87.9244 350.0551 0002095 102.3156 257.8211 13.19724187196552
ONEWEB-0377             
1 49303U 21090AA  25306.49730721 -.00000008  00000+0 -51640-4 0  9999
2 49303  87.9195 319.6457 0001918  86.0584 274.0768 13.20771290200597
ONEWEB-0378             
1 49304U 21090AB  25306.44364058  .00000066  00000+0  13148-3 0  9993
2 49304  87.9192 319.6714 0001745  91.4185 268.7148 13.20771881199850
ONEWEB-0379             
1 49305U 21090AC  25306.35909036 -.00000032  00000+0 -12149-3 0  9990
2 49305  87.9008 334.8952 0001794  98.2342 261.8992 13.14502287197768
ONEWEB-0380             
1 49306U 21090AD  25306.49292433 -.00000278  00000+0 -72663-3 0  9991
2 49306  87.9241 350.0797 0002176 100.9182 259.2195 13.19724331196523
ONEWEB-0381             
1 49307U 21090AE  25306.49401367  .00000023  00000+0  24656-4 0  9996
2 49307  87.9184 319.6512 0001635  86.2754 273.8566 13.20771868199904
ONEWEB-0382             
1 49308U 21090AF  25306.48138715  .00000039  00000+0  62951-4 0  9997
2 49308  87.9192 319.6469 0001535  93.6872 266.4437 13.20771249199893
ONEWEB-0383             
1 49309U 21090AG  25306.35275046 -.00000073  00000+0 -23216-3 0  9993
2 49309  87.9012 334.8797 0001717  99.0959 261.0365 13.14504643197799
ONEWEB-0384             
1 49310U 21090AH  25306.47558546  .00000013  00000+0  12706-6 0  9994
2 49310  87.9207 319.6804 0001337 100.7649 259.3635 13.20796304199900
ONEWEB-0385             
1 49311U 21090AJ  25306.47349220  .00000051  00000+0  92794-4 0  9997
2 49311  87.9187 319.6571 0001686  92.7835 267.3492 13.20772320199871
ONEWEB-0386             
1 49312U 21090AK  25306.49085249 -.00000030  00000+0 -10674-3 0  9993
2 49312  87.9194 319.6341 0001592  95.1942 264.9373 13.20771655199890
ONEWEB-0387             
1 49313U 21090AL  25306.47507133  .00000045  00000+0  79563-4 0  9990
2 49313  87.9182 319.6863 0001689  83.2755 276.8570 13.20770604199898
ONEWEB-0388             
1 49314U 21090AM  25306.48818244  .00000098  00000+0  21366-3 0  9995
2 49314  87.9223 350.0852 0001728  98.3674 261.7655 13.19726634196518
ONEWEB-0389             
1 50469U 21132A   25306.22550954  .00000167  00000+0  39644-3 0  9993
2 50469  87.9141  51.0022 0001420  99.5853 260.5439 13.17651380188193
ONEWEB-0390             
1 50470U 21132B   25306.37906851  .00000085  00000+0  18642-3 0  9996
2 50470  87.9127  50.9759 0001927  94.0003 266.1349 13.17650040188210
ONEWEB-0391             
1 50471U 21132C   25306.22888001  .00000106  00000+0  23969-3 0  9999
2 50471  87.9128  51.0161 0001332  73.4377 286.6901 13.17651478188190
